{
  "type": "FeatureCollection",
  "features": [
    {
      "type": "Feature",
      "properties": {
        "norad_id": 39766,
        "name": "ALOS-2",
        "group": "resource",
        "lat": 81.33781637296295,
        "lon": 17.076350213653967,
        "alt_km": 622.5155646858948,
        "timestamp": "2025-12-14T07:33:19.134965+00:00",
        "meta_object_name": "ALOS-2",
        "meta_object_id": "2014-029A",
        "meta_epoch": "2025-12-12T12:57:47.930112",
        "meta_mean_motion": 14.79474197,
        "meta_eccentricity": 0.00014,
        "meta_inclination": 97.9217,
        "meta_ra_of_asc_node": 81.3886,
        "meta_arg_of_pericenter": 99.6977,
        "meta_mean_anomaly": 260.4393,
        "meta_ephemeris_type": 0,
        "meta_classification_type": "U",
        "meta_norad_cat_id": 39766,
        "meta_element_set_no": 999,
        "meta_rev_at_epoch": 62398,
        "meta_bstar": 0.00062702076,
        "meta_mean_motion_dot": 4.634e-05,
        "meta_mean_motion_ddot": 0,
        "tle_line1": "1 39766U 14029A   25346.54013808  .00004634  00000+0  62702-3 0  9992",
        "tle_line2": "2 39766  97.9217  81.3886 0001400  99.6977 260.4393 14.79474197623982"
      },
      "geometry": {
        "type": "Point",
        "coordinates": [
          17.076350213653967,
          81.33781637296295
        ]
      }
    },
    {
      "type": "Feature",
      "properties": {
        "norad_id": 40010,
        "name": "KAZEOSAT 2",
        "group": "resource",
        "lat": 28.408266677093188,
        "lon": -171.56639550920528,
        "alt_km": 617.1829420124204,
        "timestamp": "2025-12-14T07:33:19.134976+00:00",
        "meta_object_name": "KAZEOSAT 2",
        "meta_object_id": "2014-033A",
        "meta_epoch": "2025-12-13T15:15:23.863104",
        "meta_mean_motion": 14.85169323,
        "meta_eccentricity": 0.00077376,
        "meta_inclination": 97.5508,
        "meta_ra_of_asc_node": 191.904,
        "meta_arg_of_pericenter": 203.5377,
        "meta_mean_anomaly": 156.5486,
        "meta_ephemeris_type": 0,
        "meta_classification_type": "U",
        "meta_norad_cat_id": 40010,
        "meta_element_set_no": 999,
        "meta_rev_at_epoch": 62141,
        "meta_bstar": 9.8853829e-05,
        "meta_mean_motion_dot": 7.97e-06,
        "meta_mean_motion_ddot": 0,
        "tle_line1": "1 40010U 14033A   25347.63569286  .00000797  00000+0  98854-4 0  9992",
        "tle_line2": "2 40010  97.5508 191.9040 0007737 203.5377 156.5486 14.85169323621417"
      },
      "geometry": {
        "type": "Point",
        "coordinates": [
          -171.56639550920528,
          28.408266677093188
        ]
      }
    },
    {
      "type": "Feature",
      "properties": {
        "norad_id": 40011,
        "name": "HODOYOSHI-4",
        "group": "resource",
        "lat": 49.901288935167514,
        "lon": 6.173103020433632,
        "alt_km": 594.5247045757242,
        "timestamp": "2025-12-14T07:33:19.134986+00:00",
        "meta_object_name": "HODOYOSHI-4",
        "meta_object_id": "2014-033B",
        "meta_epoch": "2025-12-13T14:49:45.983712",
        "meta_mean_motion": 14.87488524,
        "meta_eccentricity": 0.00232519,
        "meta_inclination": 97.5417,
        "meta_ra_of_asc_node": 176.4585,
        "meta_arg_of_pericenter": 197.4042,
        "meta_mean_anomaly": 162.6381,
        "meta_ephemeris_type": 0,
        "meta_classification_type": "U",
        "meta_norad_cat_id": 40011,
        "meta_element_set_no": 999,
        "meta_rev_at_epoch": 62121,
        "meta_bstar": 0.00039967139,
        "meta_mean_motion_dot": 3.588e-05,
        "meta_mean_motion_ddot": 0,
        "tle_line1": "1 40011U 14033B   25347.61789333  .00003588  00000+0  39967-3 0  9998",
        "tle_line2": "2 40011  97.5417 176.4585 0023251 197.4042 162.6381 14.87488524621217"
      },
      "geometry": {
        "type": "Point",
        "coordinates": [
          6.173103020433632,
          49.901288935167514
        ]
      }
    },
    {
      "type": "Feature",
      "properties": {
        "norad_id": 40013,
        "name": "DEIMOS-2",
        "group": "resource",
        "lat": -41.64350205383053,
        "lon": -129.11326468601186,
        "alt_km": 595.7634797440041,
        "timestamp": "2025-12-14T07:33:19.134997+00:00",
        "meta_object_name": "DEIMOS-2",
        "meta_object_id": "2014-033D",
        "meta_epoch": "2025-12-13T15:39:30.003840",
        "meta_mean_motion": 14.9297838,
        "meta_eccentricity": 8.181e-05,
        "meta_inclination": 97.6062,
        "meta_ra_of_asc_node": 223.4222,
        "meta_arg_of_pericenter": 110.5053,
        "meta_mean_anomaly": 249.6254,
        "meta_ephemeris_type": 0,
        "meta_classification_type": "U",
        "meta_norad_cat_id": 40013,
        "meta_element_set_no": 999,
        "meta_rev_at_epoch": 61003,
        "meta_bstar": 0.00033363648,
        "meta_mean_motion_dot": 3.412e-05,
        "meta_mean_motion_ddot": 0,
        "tle_line1": "1 40013U 14033D   25347.65243060  .00003412  00000+0  33364-3 0  9997",
        "tle_line2": "2 40013  97.6062 223.4222 0000818 110.5053 249.6254 14.92978380610032"
      },
      "geometry": {
        "type": "Point",
        "coordinates": [
          -129.11326468601186,
          -41.64350205383053
        ]
      }
    },
    {
      "type": "Feature",
      "properties": {
        "norad_id": 40015,
        "name": "HODOYOSHI-3",
        "group": "resource",
        "lat": 39.5530666446615,
        "lon": 147.73325197378344,
        "alt_km": 631.7607184685075,
        "timestamp": "2025-12-14T07:33:19.135007+00:00",
        "meta_object_name": "HODOYOSHI-3",
        "meta_object_id": "2014-033F",
        "meta_epoch": "2025-12-13T10:20:57.541920",
        "meta_mean_motion": 14.84811259,
        "meta_eccentricity": 0.00319282,
        "meta_inclination": 97.6197,
        "meta_ra_of_asc_node": 153.2361,
        "meta_arg_of_pericenter": 245.5965,
        "meta_mean_anomaly": 114.1918,
        "meta_ephemeris_type": 0,
        "meta_classification_type": "U",
        "meta_norad_cat_id": 40015,
        "meta_element_set_no": 999,
        "meta_rev_at_epoch": 62005,
        "meta_bstar": 0.00031690067,
        "meta_mean_motion_dot": 2.662e-05,
        "meta_mean_motion_ddot": 0,
        "tle_line1": "1 40015U 14033F   25347.43122155  .00002662  00000+0  31690-3 0  9992",
        "tle_line2": "2 40015  97.6197 153.2361 0031928 245.5965 114.1918 14.84811259620052"
      },
      "geometry": {
        "type": "Point",
        "coordinates": [
          147.73325197378344,
          39.5530666446615
        ]
      }
    },
    {
      "type": "Feature",
      "properties": {
        "norad_id": 40053,
        "name": "SPOT 7",
        "group": "resource",
        "lat": -13.591716309081091,
        "lon": 52.32441297663124,
        "alt_km": 695.53304798504,
        "timestamp": "2025-12-14T07:33:19.135018+00:00",
        "meta_object_name": "SPOT 7",
        "meta_object_id": "2014-034A",
        "meta_epoch": "2025-12-13T16:49:19.794720",
        "meta_mean_motion": 14.60737012,
        "meta_eccentricity": 0.00015714,
        "meta_inclination": 98.0904,
        "meta_ra_of_asc_node": 49.7539,
        "meta_arg_of_pericenter": 86.9278,
        "meta_mean_anomaly": 273.2102,
        "meta_ephemeris_type": 0,
        "meta_classification_type": "U",
        "meta_norad_cat_id": 40053,
        "meta_element_set_no": 999,
        "meta_rev_at_epoch": 61005,
        "meta_bstar": 0.00023764077,
        "meta_mean_motion_dot": 1.113e-05,
        "meta_mean_motion_ddot": 0,
        "tle_line1": "1 40053U 14034A   25347.70092355  .00001113  00000+0  23764-3 0  9996",
        "tle_line2": "2 40053  98.0904  49.7539 0001571  86.9278 273.2102 14.60737012610055"
      },
      "geometry": {
        "type": "Point",
        "coordinates": [
          52.32441297663124,
          -13.591716309081091
        ]
      }
    },
    {
      "type": "Feature",
      "properties": {
        "norad_id": 40072,
        "name": "SKYSAT-B",
        "group": "resource",
        "lat": 70.13587544104806,
        "lon": -91.91674761328396,
        "alt_km": 598.2014058829718,
        "timestamp": "2025-12-14T07:33:19.135029+00:00",
        "meta_object_name": "SKYSAT-B",
        "meta_object_id": "2014-037D",
        "meta_epoch": "2025-12-13T13:28:20.571744",
        "meta_mean_motion": 14.87331868,
        "meta_eccentricity": 0.00062152,
        "meta_inclination": 98.3608,
        "meta_ra_of_asc_node": 291.3108,
        "meta_arg_of_pericenter": 147.5527,
        "meta_mean_anomaly": 212.6071,
        "meta_ephemeris_type": 0,
        "meta_classification_type": "U",
        "meta_norad_cat_id": 40072,
        "meta_element_set_no": 999,
        "meta_rev_at_epoch": 61836,
        "meta_bstar": 0.00025936995,
        "meta_mean_motion_dot": 2.282e-05,
        "meta_mean_motion_ddot": 0,
        "tle_line1": "1 40072U 14037D   25347.56134921  .00002282  00000+0  25937-3 0  9992",
        "tle_line2": "2 40072  98.3608 291.3108 0006215 147.5527 212.6071 14.87331868618360"
      },
      "geometry": {
        "type": "Point",
        "coordinates": [
          -91.91674761328396,
          70.13587544104806
        ]
      }
    }
  ]
}